*******************************************************************************
Ephemeris / WWW_USER Tue Mar 27 22:07:16 2018 Pasadena, USA      / Horizons    
*******************************************************************************
Target body name: Neptune (899)                   {source: nep081xl}
Center body name: Solar System Barycenter (0)     {source: DE431mx}
Center-site name: BODY CENTER
*******************************************************************************
Start time      : A.D. 2018-Feb-08 00:00:00.0000 TDB
Stop  time      : A.D. 2023-Feb-08 00:00:00.0000 TDB
Step-size       : 7200 minutes
*******************************************************************************
Center geodetic : 0.00000000,0.00000000,0.0000000 {E-lon(deg),Lat(deg),Alt(km)}
Center cylindric: 0.00000000,0.00000000,0.0000000 {E-lon(deg),Dxy(km),Dz(km)}
Center radii    : (undefined)                                                  
Output units    : AU-D                                                         
Output type     : GEOMETRIC cartesian states
Output format   : 2 (position and velocity)
Reference frame : ICRF/J2000.0                                                 
Coordinate systm: Ecliptic and Mean Equinox of Reference Epoch                 
*******************************************************************************
JDTDB
   X     Y     Z
   VX    VY    VZ
*******************************************************************************
$$SOE
2458157.500000000 = A.D. 2018-Feb-08 00:00:00.0000 TDB 
   2.871483456146913E+01 -8.476611607942091E+00 -4.872028922057908E-01
   8.674591542196215E-04  3.029341881868142E-03 -8.206182838898119E-05
2458162.500000000 = A.D. 2018-Feb-13 00:00:00.0000 TDB 
   2.871917038077209E+01 -8.461463507096559E+00 -4.876148949931887E-01
   8.658986868097338E-04  3.029468031981785E-03 -8.236938148077711E-05
2458167.500000000 = A.D. 2018-Feb-18 00:00:00.0000 TDB 
   2.872349810243160E+01 -8.446312884341765E+00 -4.880264510183802E-01
   8.646610487057627E-04  3.029880277620146E-03 -8.266734305186130E-05
2458172.500000000 = A.D. 2018-Feb-23 00:00:00.0000 TDB 
   2.872781755326032E+01 -8.431160036623844E+00 -4.884376948233671E-01
   8.634630305655317E-04  3.030622929915231E-03 -8.269051806696751E-05
2458177.500000000 = A.D. 2018-Feb-28 00:00:00.0000 TDB 
   2.873212884376157E+01 -8.416005174784580E+00 -4.888489059216038E-01
   8.619888908241070E-04  3.031469869324244E-03 -8.239800494820930E-05
2458182.500000000 = A.D. 2018-Mar-05 00:00:00.0000 TDB 
   2.873643227684704E+01 -8.400848254822787E+00 -4.892602805378977E-01
   8.601481136507944E-04  3.032109163251793E-03 -8.200656626446116E-05
2458187.500000000 = A.D. 2018-Mar-10 00:00:00.0000 TDB 
   2.874072809951057E+01 -8.385689017205960E+00 -4.896717713499583E-01
   8.581492583710544E-04  3.032397699360584E-03 -8.181369252347201E-05
2458192.500000000 = A.D. 2018-Mar-15 00:00:00.0000 TDB 
   2.874501630016470E+01 -8.370527202125546E+00 -4.900831260130208E-01
   8.563297201855713E-04  3.032478032115144E-03 -8.195479001014016E-05
2458197.500000000 = A.D. 2018-Mar-20 00:00:00.0000 TDB 
   2.874929661706078E+01 -8.355362765006747E+00 -4.904940930441241E-01
   8.548802879178219E-04  3.032662032636269E-03 -8.229262502205300E-05
2458202.500000000 = A.D. 2018-Mar-25 00:00:00.0000 TDB 
   2.875356875094029E+01 -8.340195916308916E+00 -4.909046270151404E-01
   8.536893985390768E-04  3.033176272642563E-03 -8.252934702769327E-05
2458207.500000000 = A.D. 2018-Mar-30 00:00:00.0000 TDB 
   2.875783260829837E+01 -8.325026953113749E+00 -4.913149255469367E-01
   8.524342222153945E-04  3.033977040855521E-03 -8.244961832140613E-05
2458212.500000000 = A.D. 2018-Apr-04 00:00:00.0000 TDB 
   2.876208837666719E+01 -8.309856019980616E+00 -4.917252678972773E-01
   8.508442309587374E-04  3.034786017608960E-03 -8.209640598382611E-05
2458217.500000000 = A.D. 2018-Apr-09 00:00:00.0000 TDB 
   2.876633637046602E+01 -8.294682994326983E+00 -4.921357869138906E-01
   8.489220274479631E-04  3.035317506745449E-03 -8.173588395770191E-05
2458222.500000000 = A.D. 2018-Apr-14 00:00:00.0000 TDB 
   2.877057677330322E+01 -8.279507589892432E+00 -4.925463605088408E-01
   8.469411859892141E-04  3.035511642461284E-03 -8.164018041493981E-05
2458227.500000000 = A.D. 2018-Apr-19 00:00:00.0000 TDB 
   2.877480948706373E+01 -8.264329593822859E+00 -4.929567112071124E-01
   8.452229459522373E-04  3.035583295864537E-03 -8.186525294912722E-05
2458232.500000000 = A.D. 2018-Apr-24 00:00:00.0000 TDB 
   2.877903421098225E+01 -8.249149043857569E+00 -4.933666325513167E-01
   8.438739496682765E-04  3.035846671575972E-03 -8.220518673996491E-05
2458237.500000000 = A.D. 2018-Apr-29 00:00:00.0000 TDB 
   2.878325068615663E+01 -8.233966200932711E+00 -4.937761575421336E-01
   8.426991970881460E-04  3.036458783382174E-03 -8.236028480591005E-05
2458242.500000000 = A.D. 2018-May-04 00:00:00.0000 TDB 
   2.878745890587409E+01 -8.218781339559943E+00 -4.941855316095364E-01
   8.413612487754109E-04  3.037291255689699E-03 -8.218170912640559E-05
2458247.500000000 = A.D. 2018-May-09 00:00:00.0000 TDB 
   2.879165912004914E+01 -8.203594527111644E+00 -4.945950121739994E-01
   8.396557163991569E-04  3.038035127870501E-03 -8.179298094002126E-05
2458252.500000000 = A.D. 2018-May-14 00:00:00.0000 TDB 
   2.879585163016709E+01 -8.188405572222576E+00 -4.950046584314159E-01
   8.376780793091290E-04  3.038453086642906E-03 -8.148913161371113E-05
2458257.500000000 = A.D. 2018-May-19 00:00:00.0000 TDB 
   2.880003654216127E+01 -8.173214184404193E+00 -4.954142829397646E-01
   8.357457300136598E-04  3.038573186320729E-03 -8.149590389668380E-05
2458262.500000000 = A.D. 2018-May-24 00:00:00.0000 TDB 
   2.880421367892012E+01 -8.158020214594737E+00 -4.958236045176263E-01
   8.341388847130381E-04  3.038665983689557E-03 -8.178547326794806E-05
2458267.500000000 = A.D. 2018-May-29 00:00:00.0000 TDB 
   2.880838272386387E+01 -8.142823780273906E+00 -4.962324776785149E-01
   8.328718155103716E-04  3.039023661696575E-03 -8.209914508388797E-05
2458272.500000000 = A.D. 2018-Jun-03 00:00:00.0000 TDB 
   2.881254347837686E+01 -8.127625172968649E+00 -4.966410113007820E-01
   8.316812137260098E-04  3.039721483734895E-03 -8.215852578737674E-05
2458277.500000000 = A.D. 2018-Jun-08 00:00:00.0000 TDB 
   2.881669602292900E+01 -8.112424623657114E+00 -4.970494796602011E-01
   8.302411617242318E-04  3.040556330944354E-03 -8.189278376733567E-05
2458282.500000000 = A.D. 2018-Jun-13 00:00:00.0000 TDB 
   2.882084065034704E+01 -8.097222117602049E+00 -4.974580984446936E-01
   8.284292051629924E-04  3.041212540822470E-03 -8.149645628451601E-05
2458287.500000000 = A.D. 2018-Jun-18 00:00:00.0000 TDB 
   2.882497762575205E+01 -8.082017409786289E+00 -4.978668486088509E-01
   8.264262740475337E-04  3.041519590271176E-03 -8.127064831502314E-05
2458292.500000000 = A.D. 2018-Jun-23 00:00:00.0000 TDB 
   2.882910696913422E+01 -8.066810228329842E+00 -4.982754918198506E-01
   8.245689937581400E-04  3.041591311421366E-03 -8.137727429144321E-05
2458297.500000000 = A.D. 2018-Jun-28 00:00:00.0000 TDB 
   2.883322843802902E+01 -8.051600499864008E+00 -4.986837649021610E-01
   8.230748761225017E-04  3.041732994816919E-03 -8.170686560512013E-05
2458302.500000000 = A.D. 2018-Jul-03 00:00:00.0000 TDB 
   2.883734172446122E+01 -8.036388412852121E+00 -4.990915945756093E-01
   8.218647541712251E-04  3.042192146465834E-03 -8.196792732936790E-05
2458307.500000000 = A.D. 2018-Jul-08 00:00:00.0000 TDB 
   2.884144670536039E+01 -8.021174267148671E+00 -4.994991571852374E-01
   8.206274216652980E-04  3.042956415809478E-03 -8.192487924430281E-05
2458312.500000000 = A.D. 2018-Jul-13 00:00:00.0000 TDB 
   2.884554354201761E+01 -8.005958232604543E+00 -4.999067346581833E-01
   8.190737109843952E-04  3.043763663757966E-03 -8.159037225894777E-05
2458317.500000000 = A.D. 2018-Jul-18 00:00:00.0000 TDB 
   2.884963254739117E+01 -7.990740213810835E+00 -5.003144842762969E-01
   8.171725472486507E-04  3.044315987415700E-03 -8.121493960108712E-05
2458322.500000000 = A.D. 2018-Jul-23 00:00:00.0000 TDB 
   2.885371392963285E+01 -7.975519931393800E+00 -5.007223102075095E-01
   8.151762751531507E-04  3.044522892991446E-03 -8.108250426630935E-05
2458327.500000000 = A.D. 2018-Jul-28 00:00:00.0000 TDB 
   2.885778762117658E+01 -7.960297153486517E+00 -5.011299416238917E-01
   8.134146835631103E-04  3.044575199722287E-03 -8.127863394963823E-05
2458332.500000000 = A.D. 2018-Aug-02 00:00:00.0000 TDB 
   2.886185333290657E+01 -7.945071888448493E+00 -5.015371536787780E-01
   8.120257658282736E-04  3.044789278684895E-03 -8.162066650251073E-05
2458337.500000000 = A.D. 2018-Aug-07 00:00:00.0000 TDB 
   2.886591078919651E+01 -7.929844381467736E+00 -5.019439509589348E-01
   8.108430776826517E-04  3.045348759164903E-03 -8.180681902008005E-05
2458342.500000000 = A.D. 2018-Aug-12 00:00:00.0000 TDB 
   2.886995995192496E+01 -7.914614917809808E+00 -5.023505636504868E-01
   8.095316289304202E-04  3.046154603369117E-03 -8.166252998680626E-05
2458347.500000000 = A.D. 2018-Aug-17 00:00:00.0000 TDB 
   2.887400105059092E+01 -7.899383593336043E+00 -5.027572595447255E-01
   8.078613755794034E-04  3.046905954906375E-03 -8.128296071209812E-05
2458352.500000000 = A.D. 2018-Aug-22 00:00:00.0000 TDB 
   2.887803439395529E+01 -7.884150239659193E+00 -5.031641253559435E-01
   8.058949870293158E-04  3.047345760559198E-03 -8.095529391607921E-05
2458357.500000000 = A.D. 2018-Aug-27 00:00:00.0000 TDB 
   2.888206011701241E+01 -7.868914565013019E+00 -5.035709958487808E-01
   8.039366672863669E-04  3.047470601227830E-03 -8.092433862734028E-05
2458362.500000000 = A.D. 2018-Sep-01 00:00:00.0000 TDB 
   2.888607806980957E+01 -7.853676395854039E+00 -5.039775886097033E-01
   8.022838361626565E-04  3.047533519259248E-03 -8.119269476825957E-05
